CCSDS_OMM_VERS = 2.0
CREATION_DATE  = 
ORIGINATOR     = 

OBJECT_NAME    = STARLINK-36930
OBJECT_ID      = 2026-040D
CENTER_NAME    = EARTH
REF_FRAME      = TEME
TIME_SYSTEM    = UTC
MEAN_ELEMENT_THEORY = SGP/SGP4

EPOCH          = 2026-03-18T20:00:01.999008
MEAN_MOTION    = 15.80899454
ECCENTRICITY   = .000159
INCLINATION    = 97.2727
RA_OF_ASC_NODE = 26.7148
ARG_OF_PERICENTER = 94.2282
MEAN_ANOMALY   = 269.5175

EPHEMERIS_TYPE = 0
CLASSIFICATION_TYPE = U
NORAD_CAT_ID   = 68018
ELEMENT_SET_NO = 999
REV_AT_EPOCH   = 389
BSTAR          = -.59004E-3
MEAN_MOTION_DOT = -.112155E-2
MEAN_MOTION_DDOT = 0

CCSDS_OMM_VERS = 2.0
CREATION_DATE  = 
ORIGINATOR     = 

OBJECT_NAME    = STARLINK-36921
OBJECT_ID      = 2026-040E
CENTER_NAME    = EARTH
REF_FRAME      = TEME
TIME_SYSTEM    = UTC
MEAN_ELEMENT_THEORY = SGP/SGP4

EPOCH          = 2026-03-18T14:00:01.000224
MEAN_MOTION    = 15.81988663
ECCENTRICITY   = .00011831
INCLINATION    = 97.2728
RA_OF_ASC_NODE = 26.4594
ARG_OF_PERICENTER = 93.1780
MEAN_ANOMALY   = 305.1053

EPHEMERIS_TYPE = 0
CLASSIFICATION_TYPE = U
NORAD_CAT_ID   = 68019
ELEMENT_SET_NO = 999
REV_AT_EPOCH   = 385
BSTAR          = -.81185426E-2
MEAN_MOTION_DOT = -.1455798E-1
MEAN_MOTION_DDOT = 0

CCSDS_OMM_VERS = 2.0
CREATION_DATE  = 
ORIGINATOR     = 

OBJECT_NAME    = STARLINK-36928
OBJECT_ID      = 2026-040F
CENTER_NAME    = EARTH
REF_FRAME      = TEME
TIME_SYSTEM    = UTC
MEAN_ELEMENT_THEORY = SGP/SGP4

EPOCH          = 2026-03-18T20:00:01.999008
MEAN_MOTION    = 15.80887372
ECCENTRICITY   = .0001027
INCLINATION    = 97.2730
RA_OF_ASC_NODE = 26.7202
ARG_OF_PERICENTER = 92.2798
MEAN_ANOMALY   = 284.2828

EPHEMERIS_TYPE = 0
CLASSIFICATION_TYPE = U
NORAD_CAT_ID   = 68020
ELEMENT_SET_NO = 999
REV_AT_EPOCH   = 389
BSTAR          = -.50802E-3
MEAN_MOTION_DOT = -.96692E-3
MEAN_MOTION_DDOT = 0

CCSDS_OMM_VERS = 2.0
CREATION_DATE  = 
ORIGINATOR     = 

OBJECT_NAME    = STARLINK-36858
OBJECT_ID      = 2026-040G
CENTER_NAME    = EARTH
REF_FRAME      = TEME
TIME_SYSTEM    = UTC
MEAN_ELEMENT_THEORY = SGP/SGP4

EPOCH          = 2026-03-18T12:34:53.577408
MEAN_MOTION    = 15.91829661
ECCENTRICITY   = .0001412
INCLINATION    = 97.2782
RA_OF_ASC_NODE = 26.5250
ARG_OF_PERICENTER = 113.0957
MEAN_ANOMALY   = 247.0466

EPHEMERIS_TYPE = 0
CLASSIFICATION_TYPE = U
NORAD_CAT_ID   = 68021
ELEMENT_SET_NO = 999
REV_AT_EPOCH   = 275
BSTAR          = .23855E-2
MEAN_MOTION_DOT = .775266E-2
MEAN_MOTION_DDOT = .24945E-3

CCSDS_OMM_VERS = 2.0
CREATION_DATE  = 
ORIGINATOR     = 

OBJECT_NAME    = STARLINK-36916
OBJECT_ID      = 2026-040H
CENTER_NAME    = EARTH
REF_FRAME      = TEME
TIME_SYSTEM    = UTC
MEAN_ELEMENT_THEORY = SGP/SGP4

EPOCH          = 2026-03-18T14:00:01.000224
MEAN_MOTION    = 15.81869125
ECCENTRICITY   = .00011293
INCLINATION    = 97.2721
RA_OF_ASC_NODE = 26.4621
ARG_OF_PERICENTER = 103.5691
MEAN_ANOMALY   = 303.3370

EPHEMERIS_TYPE = 0
CLASSIFICATION_TYPE = U
NORAD_CAT_ID   = 68022
ELEMENT_SET_NO = 999
REV_AT_EPOCH   = 385
BSTAR          = -.71865852E-2
MEAN_MOTION_DOT = -.1276324E-1
MEAN_MOTION_DDOT = 0

CCSDS_OMM_VERS = 2.0
CREATION_DATE  = 
ORIGINATOR     = 

OBJECT_NAME    = STARLINK-36871
OBJECT_ID      = 2026-040J
CENTER_NAME    = EARTH
REF_FRAME      = TEME
TIME_SYSTEM    = UTC
MEAN_ELEMENT_THEORY = SGP/SGP4

EPOCH          = 2026-03-18T20:00:01.999008
MEAN_MOTION    = 15.80813965
ECCENTRICITY   = .0000933
INCLINATION    = 97.2723
RA_OF_ASC_NODE = 26.7269
ARG_OF_PERICENTER = 63.7669
MEAN_ANOMALY   = 329.9197

EPHEMERIS_TYPE = 0
CLASSIFICATION_TYPE = U
NORAD_CAT_ID   = 68023
ELEMENT_SET_NO = 999
REV_AT_EPOCH   = 389
BSTAR          = .16746E-3
MEAN_MOTION_DOT = .32048E-3
MEAN_MOTION_DDOT = 0

CCSDS_OMM_VERS = 2.0
CREATION_DATE  = 
ORIGINATOR     = 

OBJECT_NAME    = STARLINK-36891
OBJECT_ID      = 2026-040K
CENTER_NAME    = EARTH
REF_FRAME      = TEME
TIME_SYSTEM    = UTC
MEAN_ELEMENT_THEORY = SGP/SGP4

EPOCH          = 2026-03-18T20:00:01.999008
MEAN_MOTION    = 15.80806111
ECCENTRICITY   = .0001426
INCLINATION    = 97.2724
RA_OF_ASC_NODE = 26.7292
ARG_OF_PERICENTER = 81.5913
MEAN_ANOMALY   = 316.3805

EPHEMERIS_TYPE = 0
CLASSIFICATION_TYPE = U
NORAD_CAT_ID   = 68024
ELEMENT_SET_NO = 999
REV_AT_EPOCH   = 389
BSTAR          = .16432E-3
MEAN_MOTION_DOT = .31433E-3
MEAN_MOTION_DDOT = 0

CCSDS_OMM_VERS = 2.0
CREATION_DATE  = 
ORIGINATOR     = 

OBJECT_NAME    = STARLINK-36378
OBJECT_ID      = 2026-040L
CENTER_NAME    = EARTH
REF_FRAME      = TEME
TIME_SYSTEM    = UTC
MEAN_ELEMENT_THEORY = SGP/SGP4

EPOCH          = 2026-03-18T20:00:01.999008
MEAN_MOTION    = 15.80778909
ECCENTRICITY   = .0001047
INCLINATION    = 97.2743
RA_OF_ASC_NODE = 26.7352
ARG_OF_PERICENTER = 88.9316
MEAN_ANOMALY   = 317.5980

EPHEMERIS_TYPE = 0
CLASSIFICATION_TYPE = U
NORAD_CAT_ID   = 68025
ELEMENT_SET_NO = 999
REV_AT_EPOCH   = 384
BSTAR          = .44456E-3
MEAN_MOTION_DOT = .85706E-3
MEAN_MOTION_DDOT = 0

CCSDS_OMM_VERS = 2.0
CREATION_DATE  = 
ORIGINATOR     = 

OBJECT_NAME    = STARLINK-36884
OBJECT_ID      = 2026-040M
CENTER_NAME    = EARTH
REF_FRAME      = TEME
TIME_SYSTEM    = UTC
MEAN_ELEMENT_THEORY = SGP/SGP4

EPOCH          = 2026-03-18T20:00:01.999008
MEAN_MOTION    = 15.80794439
ECCENTRICITY   = .0001012
INCLINATION    = 97.2736
RA_OF_ASC_NODE = 26.7318
ARG_OF_PERICENTER = 77.6978
MEAN_ANOMALY   = 324.5525

EPHEMERIS_TYPE = 0
CLASSIFICATION_TYPE = U
NORAD_CAT_ID   = 68026
ELEMENT_SET_NO = 999
REV_AT_EPOCH   = 389
BSTAR          = .27865E-3
MEAN_MOTION_DOT = .53507E-3
MEAN_MOTION_DDOT = 0

CCSDS_OMM_VERS = 2.0
CREATION_DATE  = 
ORIGINATOR     = 

OBJECT_NAME    = STARLINK-36940
OBJECT_ID      = 2026-040N
CENTER_NAME    = EARTH
REF_FRAME      = TEME
TIME_SYSTEM    = UTC
MEAN_ELEMENT_THEORY = SGP/SGP4

EPOCH          = 2026-03-18T20:00:01.999008
MEAN_MOTION    = 15.80829709
ECCENTRICITY   = .0001482
INCLINATION    = 97.2832
RA_OF_ASC_NODE = 26.7618
ARG_OF_PERICENTER = 98.9176
MEAN_ANOMALY   = 358.8695

EPHEMERIS_TYPE = 0
CLASSIFICATION_TYPE = U
NORAD_CAT_ID   = 68027
ELEMENT_SET_NO = 999
REV_AT_EPOCH   = 399
BSTAR          = -.10851E-3
MEAN_MOTION_DOT = -.20891E-3
MEAN_MOTION_DDOT = 0

CCSDS_OMM_VERS = 2.0
CREATION_DATE  = 
ORIGINATOR     = 

OBJECT_NAME    = STARLINK-36253
OBJECT_ID      = 2026-040P
CENTER_NAME    = EARTH
REF_FRAME      = TEME
TIME_SYSTEM    = UTC
MEAN_ELEMENT_THEORY = SGP/SGP4

EPOCH          = 2026-03-18T20:00:01.999008
MEAN_MOTION    = 15.74059228
ECCENTRICITY   = .0001899
INCLINATION    = 97.2852
RA_OF_ASC_NODE = 26.5128
ARG_OF_PERICENTER = 96.1409
MEAN_ANOMALY   = 145.7405

EPHEMERIS_TYPE = 0
CLASSIFICATION_TYPE = U
NORAD_CAT_ID   = 68028
ELEMENT_SET_NO = 999
REV_AT_EPOCH   = 399
BSTAR          = -.15291E-1
MEAN_MOTION_DOT = -.1893006E-1
MEAN_MOTION_DDOT = 0

CCSDS_OMM_VERS = 2.0
CREATION_DATE  = 
ORIGINATOR     = 

OBJECT_NAME    = STARLINK-36944
OBJECT_ID      = 2026-040Q
CENTER_NAME    = EARTH
REF_FRAME      = TEME
TIME_SYSTEM    = UTC
MEAN_ELEMENT_THEORY = SGP/SGP4

EPOCH          = 2026-03-18T20:00:01.999008
MEAN_MOTION    = 15.80779583
ECCENTRICITY   = .0000909
INCLINATION    = 97.2729
RA_OF_ASC_NODE = 26.7346
ARG_OF_PERICENTER = 81.2691
MEAN_ANOMALY   = 329.5347

EPHEMERIS_TYPE = 0
CLASSIFICATION_TYPE = U
NORAD_CAT_ID   = 68029
ELEMENT_SET_NO = 999
REV_AT_EPOCH   = 389
BSTAR          = .4297E-3
MEAN_MOTION_DOT = .8281E-3
MEAN_MOTION_DDOT = 0

