STARLINK-36930          
1 68018U 26040D   26077.83335647 -.00112155  00000+0 -59004-3 0  9993
2 68018  97.2727  26.7148 0001590  94.2282 269.5175 15.80899454  3897
STARLINK-36921          
1 68019U 26040E   26077.58334491 -.01455798  00000+0 -81185-2 0  9990
2 68019  97.2728  26.4594 0001183  93.1780 305.1053 15.81988663  3850
STARLINK-36928          
1 68020U 26040F   26077.83335647 -.00096692  00000+0 -50802-3 0  9990
2 68020  97.2730  26.7202 0001027  92.2798 284.2828 15.80887372  3895
STARLINK-36858          
1 68021U 26040G   26077.52423122  .00775266  24945-3  23855-2 0  9997
2 68021  97.2782  26.5250 0001412 113.0957 247.0466 15.91829661  2759
STARLINK-36916          
1 68022U 26040H   26077.58334491 -.01276324  00000+0 -71866-2 0  9995
2 68022  97.2721  26.4621 0001129 103.5691 303.3370 15.81869125  3858
STARLINK-36871          
1 68023U 26040J   26077.83335647  .00032048  00000+0  16746-3 0  9995
2 68023  97.2723  26.7269 0000933  63.7669 329.9197 15.80813965  3891
STARLINK-36891          
1 68024U 26040K   26077.83335647  .00031433  00000+0  16432-3 0  9995
2 68024  97.2724  26.7292 0001426  81.5913 316.3805 15.80806111  3898
STARLINK-36378          
1 68025U 26040L   26077.83335647  .00085706  00000+0  44456-3 0  9995
2 68025  97.2743  26.7352 0001047  88.9316 317.5980 15.80778909  3849
STARLINK-36884          
1 68026U 26040M   26077.83335647  .00053507  00000+0  27865-3 0  9995
2 68026  97.2736  26.7318 0001012  77.6978 324.5525 15.80794439  3899
STARLINK-36940          
1 68027U 26040N   26077.83335647 -.00020891  00000+0 -10851-3 0  9995
2 68027  97.2832  26.7618 0001482  98.9176 358.8695 15.80829709  3995
STARLINK-36253          
1 68028U 26040P   26077.83335647 -.01893006  00000+0 -15291-1 0  9994
2 68028  97.2852  26.5128 0001899  96.1409 145.7405 15.74059228  3999
STARLINK-36944          
1 68029U 26040Q   26077.83335647  .00082810  00000+0  42970-3 0  9991
2 68029  97.2729  26.7346 0000909  81.2691 329.5347 15.80779583  3892
